IRIDIUM 8 [+]           
1 24792U 97020A   17297.44780276  .00000091  00000-0  25484-4 0  9993
2 24792  86.3937 264.6223 0002299  85.8760 274.2698 14.34216503 71727
IRIDIUM 7 [+]           
1 24793U 97020B   17297.44084823  .00000088  00000-0  24344-4 0  9999
2 24793  86.3942 264.9176 0002353  89.0991 271.0475 14.34231663 71729
IRIDIUM 6 [+]           
1 24794U 97020C   17297.43517143  .00000077  00000-0  20304-4 0  9995
2 24794  86.3939 264.8464 0002186  86.6534 273.4912 14.34214124 71720
IRIDIUM 5 [+]           
1 24795U 97020D   17297.42881192  .00000080  00000-0  21618-4 0  9996
2 24795  86.3933 264.8633 0002146  88.5049 271.6393 14.34212353 71805
IRIDIUM 4 [-]           
1 24796U 97020E   17297.49380601  .00000099  00000-0  27691-4 0  9990
2 24796  86.3938 263.6777 0002232  87.0221  52.3532 14.35182705 71851
IRIDIUM 914 [-]         
1 24836U 97030A   17297.48243842  .00000152  00000-0  42950-4 0  9995
2 24836  86.3900 280.1023 0003691  71.7844 288.3756 14.38785311 67538
IRIDIUM 12 [+]          
1 24837U 97030B   17297.46654484 -.00000033  00000-0 -18863-4 0  9998
2 24837  86.3913 296.0344 0002197  86.6199  25.1757 14.34217016 65470
IRIDIUM 10 [+]          
1 24839U 97030D   17297.45369325 -.00000064  00000-0 -29929-4 0  9995
2 24839  86.3913 296.0188 0002200  86.6343  24.2020 14.34216176 65484
IRIDIUM 13 [+]          
1 24840U 97030E   17297.45127655 -.00000042  00000-0 -21901-4 0  9993
2 24840  86.3922 296.1488 0001498 103.1363 257.0000 14.34216389 65508
IRIDIUM 16 [-]          
1 24841U 97030F   17297.46502123  .00000128  00000-0  36545-4 0  9995
2 24841  86.3995 295.8595 0001818 160.6731 199.4535 14.36743318 66149
IRIDIUM 911 [-]         
1 24842U 97030G   17297.46728721  .00000162  00000-0  40602-4 0  9997
2 24842  86.4422 296.5666 0015456  29.8359 330.3720 14.44989966 71618
IRIDIUM 15 [+]          
1 24869U 97034A   17297.47267334  .00000038  00000-0  58316-5 0  9993
2 24869  86.4171 327.9961 0001880  89.1196 271.0217 14.38609884 62522
IRIDIUM 17 [-]          
1 24870U 97034B   17297.51978865  .00000146  00000-0  43673-4 0  9997
2 24870  86.3948 325.9889 0003450 119.5019 240.6522 14.35781728 62738
IRIDIUM 920 [-]         
1 24871U 97034C   17297.45929724  .00000119  00000-0  31784-4 0  9991
2 24871  86.3942 311.8832 0009552 276.2663  83.7447 14.39494431 64943
IRIDIUM 18 [+]          
1 24872U 97034D   17297.46636107  .00000012  00000-0 -24914-5 0  9994
2 24872  86.4197 328.0322 0001633  86.5910 273.5475 14.38609134 62507
IRIDIUM 921 [-]         
1 24873U 97034E   17297.47574352  .00001637  00000-0  94410-4 0  9999
2 24873  86.3960   4.8646 0005336 252.5981 107.4674 15.11613165107620
IRIDIUM 26 [-]          
1 24903U 97043A   17297.34525677  .00000158  00000-0  48400-4 0  9990
2 24903  86.4022 200.7311 0001910  85.4694 274.6721 14.35280539 56496
IRIDIUM 25 [+]          
1 24904U 97043B   17297.35223127  .00000231  00000-0  75511-4 0  9992
2 24904  86.4014 201.4369 0001935  80.2058 279.9356 14.34217479 56341
IRIDIUM 46 [+]          
1 24905U 97043C   17297.29513917  .00000022  00000-0  62518-6 0  9998
2 24905  86.4047 201.4616 0001558  64.6143 295.5214 14.34219506 56334
IRIDIUM 23 [+]          
1 24906U 97043D   17297.51830646  .00000251  00000-0  82729-4 0  9993
2 24906  86.4026 201.4375 0002024  78.5091  25.8426 14.34217437 56373
IRIDIUM 22 [+]          
1 24907U 97043E   17297.33320022  .00000248  00000-0  81467-4 0  9990
2 24907  86.4024 202.1290 0002048  80.2247 279.9180 14.34219481 56342
DUMMY MASS 1 [-]        
1 24925U 97048A   17297.54834785  .00000113  00000-0  99868-5 0  9990
2 24925  86.3361 343.7783 0005243 320.4206  39.6634 14.85151747 90785
DUMMY MASS 2 [-]        
1 24926U 97048B   17296.73097887  .00000099  00000-0  83546-5 0  9994
2 24926  86.3363 345.2920 0006399 331.8027  28.2849 14.84919493 90509
IRIDIUM 29 [-]          
1 24944U 97051A   17297.42691093 -.00000040  00000-0 -21334-4 0  9998
2 24944  86.3988 232.7951 0002241  77.7130 282.4317 14.34627617 52960
IRIDIUM 32 [+]          
1 24945U 97051B   17297.43173972  .00000207  00000-0  66936-4 0  9991
2 24945  86.3986 233.0421 0002192  79.5480 280.5963 14.34217379 52942
IRIDIUM 33 [-]          
1 24946U 97051C   17297.38352544  .00000127  00000-0  38883-4 0  9991
2 24946  86.3906 232.6330 0007921 167.0063 193.1338 14.33573788 52543
IRIDIUM 28 [-]          
1 24948U 97051E   17297.42681819  .00000151  00000-0  45634-4 0  9997
2 24948  86.3997 231.9503 0001925  91.4514 268.6903 14.35575856 53129
IRIDIUM 30 [-]          
1 24949U 97051F   17271.33813138  .24952974 -19063-5  38201-3 0  9992
2 24949  86.3452 238.9858 0025131 154.2013 206.3664 16.46254047 49862
IRIDIUM 31 [+]          
1 24950U 97051G   17297.44427316  .00000028  00000-0  27218-5 0  9994
2 24950  86.4248 233.1365 0001970  77.5919 282.5499 14.38596785 52958
IRIDIUM 19 [+]          
1 24965U 97056A   17297.40340115 -.00000004  00000-0 -85761-5 0  9995
2 24965  86.3934 264.6532 0002170  82.4436 277.7006 14.34216124 51076
IRIDIUM 35 [+]          
1 24966U 97056B   17297.41608896 -.00000006  00000-0 -93184-5 0  9990
2 24966  86.3933 264.6409 0002164  82.1615 277.9826 14.34215680 51054
IRIDIUM 36 [-]          
1 24967U 97056C   17297.42694937  .00000102  00000-0  28455-4 0  9996
2 24967  86.3951 263.5908 0002392  89.0798 271.0673 14.35627024 51402
IRIDIUM 37 [+]          
1 24968U 97056D   17297.46049302  .00000128  00000-0  38715-4 0  9999
2 24968  86.3939 264.8122 0002250  85.4642 274.6811 14.34211467 51066
IRIDIUM 34 [+]          
1 24969U 97056E   17297.40973929 -.00000011  00000-0 -11111-4 0  9999
2 24969  86.3936 264.7708 0002197  83.2606 276.8840 14.34215729 51059
IRIDIUM 43 [-]          
1 25039U 97069A   17297.52692454  .00111805  21536-5  47275-3 0  9999
2 25039  86.3910 315.5378 0209251 263.0937  94.6485 15.59395799 46579
IRIDIUM 41 [+]          
1 25040U 97069B   17297.46106853  .00000051  00000-0  11015-4 0  9999
2 25040  86.3948 327.9287 0002028  93.6650 266.4777 14.34219654 44848
IRIDIUM 40 [-]          
1 25041U 97069C   17297.11341845  .00058577 -53621-6  45541-3 0  9994
2 25041  86.3806 314.0435 0238087 145.2610 216.4462 15.42566584 46744
IRIDIUM 39 [B]          
1 25042U 97069D   17297.47497276  .00000168  00000-0  41219-4 0  9992
2 25042  86.3902 324.0593 0017068 239.4361 120.5158 14.46190535 45402
IRIDIUM 38 [-]          
1 25043U 97069E   17297.47680617  .00000124  00000-0  35925-4 0  9995
2 25043  86.3944 324.9436 0001784 132.2600 227.8748 14.36056190 45287
IRIDIUM 42 [-]          
1 25077U 97077A   17297.44336826  .00000115  00000-0  33833-4 0  9994
2 25077  86.3954 327.8678 0001895 101.9694 258.1714 14.34506239 40720
IRIDIUM 44 [-]          
1 25078U 97077B   17297.42237359  .00000159  00000-0  46027-4 0  9991
2 25078  86.3936 317.1238 0002282 137.7126 222.4248 14.38152394 42207
IRIDIUM 45 [+]          
1 25104U 97082A   17297.41269869  .00000214  00000-0  69309-4 0  9997
2 25104  86.3984 233.1721 0001343  97.1946 262.9402 14.34217722 38894
IRIDIUM 24 [-]          
1 25105U 97082B   17297.23406218  .00000135  00000-0  36590-4 0  9997
2 25105  86.3961 180.9912 0009605 283.2949  76.7178 14.39882875 41427
IRIDIUM 47 [+]          
1 25106U 97082C   17297.30148563  .00000340  00000-0  11452-3 0  9999
2 25106  86.4011 201.3255 0002040  77.9804 282.1620 14.34217611 38872
IRIDIUM 49 [+]          
1 25108U 97082E   17297.47735271  .00000069  00000-0  17713-4 0  9992
2 25108  86.4012 201.3580 0002016  78.7025  43.3391 14.34215278 38906
IRIDIUM 52 [+]          
1 25169U 98010A   17297.48295507 -.00000021  00000-0 -14437-4 0  9995
2 25169  86.3917 296.3311 0002200  87.2913 272.8535 14.34216987 30312
IRIDIUM 56 [+]          
1 25170U 98010B   17297.47662073  .00000000  00000-0 -68945-5 0  9992
2 25170  86.3914 296.4478 0001953  92.6012 267.5407 14.34217354 30295
IRIDIUM 54 [+]          
1 25171U 98010C   17297.43857896 -.00000024  00000-0 -15491-4 0  9992
2 25171  86.3918 296.3713 0002216  86.9124 273.2326 14.34216856 30452
IRIDIUM 50 [+]          
1 25172U 98010D   17297.47027693 -.00000031  00000-0 -18291-4 0  9990
2 25172  86.3918 296.3136 0002259  84.9902 275.1551 14.34216716 30299
IRIDIUM 53 [+]          
1 25173U 98010E   17297.41954933 -.00000024  00000-0 -15481-4 0  9991
2 25173  86.3918 296.3417 0002207  87.3455 272.7993 14.34216799 30299
IRIDIUM 51 [S]          
1 25262U 98018A   17297.51121744  .00000126  00000-0  38026-4 0  9996
2 25262  86.3942 264.9584 0002172  72.6069 287.5364 14.34216358 29699
IRIDIUM 61 [+]          
1 25263U 98018B   17297.39706581 -.00000002  00000-0 -76448-5 0  9997
2 25263  86.3936 264.8043 0002162  81.9113 278.2328 14.34215091 25386
IRIDIUM 55 [+]          
1 25272U 98019A   17297.38108203  .00000192  00000-0  56284-4 0  9997
2 25272  86.4243 232.9720 0002083  71.7739 288.3686 14.38598178 24606
IRIDIUM 57 [-]          
1 25273U 98019B   17297.36189980  .00000138  00000-0  42260-4 0  9996
2 25273  86.3994 233.2961 0002285  83.9088 276.2368 14.34284546 24583
IRIDIUM 58 [+]          
1 25274U 98019C   17297.38731128  .00000199  00000-0  58620-4 0  9990
2 25274  86.4241 233.4785 0002138  74.0921 286.0512 14.38595438 24602
IRIDIUM 59 [+]          
1 25275U 98019D   17297.52687270  .00000205  00000-0  66148-4 0  9997
2 25275  86.3986 233.2703 0002278  80.0061 280.1392 14.34217969 24600
IRIDIUM 60 [+]          
1 25276U 98019E   17297.39368372  .00000193  00000-0  61688-4 0  9992
2 25276  86.3983 232.9411 0002166  81.7326 278.4115 14.34217524 24585
IRIDIUM 62 [+]          
1 25285U 98021A   17297.21563654  .00000167  00000-0  52413-4 0  9993
2 25285  86.3991 170.0129 0001943  80.2875 279.8540 14.34219888 23511
IRIDIUM 63 [-]          
1 25286U 98021B   17297.19849465  .00000142  00000-0  43348-4 0  9998
2 25286  86.4023 170.4356 0002122  82.4492  30.3389 14.34689160 23542
